{
    "links": {
        "self": "http://www.neowsapp.com/rest/v1/neo/3879721?api_key=iIulBulltgU6a56xZRHN4H3l9WmuAYTsLGpBGhQ2"
    },
    "id": "3879721",
    "neo_reference_id": "3879721",
    "name": "(2019 UL6)",
    "designation": "2019 UL6",
    "nasa_jpl_url": "http://ssd.jpl.nasa.gov/sbdb.cgi?sstr=3879721",
    "absolute_magnitude_h": 24.9,
    "estimated_diameter": {
        "kilometers": {
            "estimated_diameter_min": 0.0278326768,
            "estimated_diameter_max": 0.0622357573
        },
        "meters": {
            "estimated_diameter_min": 27.8326768072,
            "estimated_diameter_max": 62.2357573367
        },
        "miles": {
            "estimated_diameter_min": 0.0172944182,
            "estimated_diameter_max": 0.0386714948
        },
        "feet": {
            "estimated_diameter_min": 91.3145593761,
            "estimated_diameter_max": 204.1855621004
        }
    },
    "is_potentially_hazardous_asteroid": false,
    "close_approach_data": [
        {
            "close_approach_date": "2019-11-07",
            "close_approach_date_full": "2019-Nov-07 06:20",
            "epoch_date_close_approach": 1573107600000,
            "relative_velocity": {
                "kilometers_per_second": "7.8147859061",
                "kilometers_per_hour": "28133.2292620152",
                "miles_per_hour": "17480.8945933894"
            },
            "miss_distance": {
                "astronomical": "0.1133706803",
                "lunar": "44.1011946367",
                "kilometers": "16960012.293330961",
                "miles": "10538462.9640548218"
            },
            "orbiting_body": "Earth"
        }
    ],
    "orbital_data": {
        "orbit_id": "2",
        "orbit_determination_date": "2019-10-28 06:12:27",
        "first_observation_date": "2019-10-24",
        "last_observation_date": "2019-10-28",
        "data_arc_in_days": 4,
        "observations_used": 18,
        "orbit_uncertainty": "9",
        "minimum_orbit_intersection": ".11032",
        "jupiter_tisserand_invariant": "3.309",
        "epoch_osculation": "2458781.5",
        "eccentricity": ".5470282799021621",
        "semi_major_axis": "2.36956590198624",
        "inclination": "10.00309659242577",
        "ascending_node_longitude": "24.77171247943944",
        "orbital_period": "1332.29873172016",
        "perihelion_distance": "1.073346342507892",
        "perihelion_argument": "33.25922201457686",
        "aphelion_distance": "3.665785461464588",
        "perihelion_time": "2458808.312109506229",
        "mean_anomaly": "352.7551087511882",
        "mean_motion": ".2702096695199853",
        "equinox": "J2000",
        "orbit_class": {
            "orbit_class_type": "AMO",
            "orbit_class_description": "Near-Earth asteroid orbits similar to that of 1221 Amor",
            "orbit_class_range": "1.017 AU < q (perihelion) < 1.3 AU"
        }
    },
    "is_sentry_object": false
}